{"type": "FeatureCollection", "features": [ {"type": "Feature", "properties": {"norad_id": 37292, "name": "COSMOS 2251 DEB", "group": "cosmos-2251-debris", "lat": 2.377272673384072, "lon": 39.643809726935004, "alt_km": 763.0437813615526, "timestamp": "2025-12-18T23:35:49.460844+00:00", "meta": {"OBJECT_NAME": "COSMOS 2251 DEB", "OBJECT_ID": "1993-036BJG", "EPOCH": "2025-12-02T14:04:30.366912", "MEAN_MOTION": 14.03226454, "ECCENTRICITY": 0.02102512, "INCLINATION": 74.129, "RA_OF_ASC_NODE": 67.3453, "ARG_OF_PERICENTER": 73.1105, "MEAN_ANOMALY": 289.2966, "EPHEMERIS_TYPE": 0, "CLASSIFICATION_TYPE": "U", "NORAD_CAT_ID": 37292, "ELEMENT_SET_NO": 999, "REV_AT_EPOCH": 59706, "BSTAR": 0.0022453288, "MEAN_MOTION_DOT": 4.236e-05, "MEAN_MOTION_DDOT": 0}, "tle": {"line1": "1 37292U 93036BJG 25336.58646258  .00004236  00000+0  22453-2 0  9999", "line2": "2 37292  74.1290  67.3453 0210251  73.1105 289.2966 14.03226454597064"}}, "geometry": {"type": "Point", "coordinates": [39.643809726935004, 2.377272673384072]}}, {"type": "Feature", "properties": {"norad_id": 37295, "name": "COSMOS 2251 DEB", "group": "cosmos-2251-debris", "lat": -47.06594211408698, "lon": 107.5432181583532, "alt_km": 707.2093349656234, "timestamp": "2025-12-18T23:35:49.460855+00:00", "meta": {"OBJECT_NAME": "COSMOS 2251 DEB", "OBJECT_ID": "1993-036BJK", "EPOCH": "2025-12-17T18:42:01.411200", "MEAN_MOTION": 14.6526833, "ECCENTRICITY": 0.00439101, "INCLINATION": 74.007, "RA_OF_ASC_NODE": 271.9083, "ARG_OF_PERICENTER": 89.546, "MEAN_ANOMALY": 271.074, "EPHEMERIS_TYPE": 0, "CLASSIFICATION_TYPE": "U", "NORAD_CAT_ID": 37295, "ELEMENT_SET_NO": 999, "REV_AT_EPOCH": 82378, "BSTAR": 0.00042758939, "MEAN_MOTION_DOT": 2.307e-05, "MEAN_MOTION_DDOT": 0}, "tle": {"line1": "1 37295U 93036BJK 25351.77918300  .00002307  00000+0  42759-3 0  9999", "line2": "2 37295  74.0070 271.9083 0043910  89.5460 271.0740 14.65268330823782"}}, "geometry": {"type": "Point", "coordinates": [107.5432181583532, -47.06594211408698]}}, {"type": "Feature", "properties": {"norad_id": 37305, "name": "COSMOS 2251 DEB", "group": "cosmos-2251-debris", "lat": 69.65860016474842, "lon": -29.74591698625909, "alt_km": 797.7885025155074, "timestamp": "2025-12-18T23:35:49.460866+00:00", "meta": {"OBJECT_NAME": "COSMOS 2251 DEB", "OBJECT_ID": "1993-036BJV", "EPOCH": "2025-12-13T12:50:04.816608", "MEAN_MOTION": 14.36140847, "ECCENTRICITY": 0.00500253, "INCLINATION": 73.8697, "RA_OF_ASC_NODE": 289.0409, "ARG_OF_PERICENTER": 249.3262, "MEAN_ANOMALY": 110.2523, "EPHEMERIS_TYPE": 0, "CLASSIFICATION_TYPE": "U", "NORAD_CAT_ID": 37305, "ELEMENT_SET_NO": 999, "REV_AT_EPOCH": 66878, "BSTAR": 0.00092453159, "MEAN_MOTION_DOT": 2.706e-05, "MEAN_MOTION_DDOT": 0}, "tle": {"line1": "1 37305U 93036BJV 25347.53477797  .00002706  00000+0  92453-3 0  9999", "line2": "2 37305  73.8697 289.0409 0050025 249.3262 110.2523 14.36140847668789"}}, "geometry": {"type": "Point", "coordinates": [-29.74591698625909, 69.65860016474842]}}, {"type": "Feature", "properties": {"norad_id": 37312, "name": "COSMOS 2251 DEB", "group": "cosmos-2251-debris", "lat": -15.129558656174606, "lon": -171.91227310001034, "alt_km": 734.1483728294652, "timestamp": "2025-12-18T23:35:49.460876+00:00", "meta": {"OBJECT_NAME": "COSMOS 2251 DEB", "OBJECT_ID": "1993-036BKC", "EPOCH": "2025-12-15T07:40:32.314080", "MEAN_MOTION": 14.46134941, "ECCENTRICITY": 0.00183905, "INCLINATION": 74.0308, "RA_OF_ASC_NODE": 199.364, "ARG_OF_PERICENTER": 302.4306, "MEAN_ANOMALY": 57.5073, "EPHEMERIS_TYPE": 0, "CLASSIFICATION_TYPE": "U", "NORAD_CAT_ID": 37312, "ELEMENT_SET_NO": 999, "REV_AT_EPOCH": 86201, "BSTAR": 0.00037323494, "MEAN_MOTION_DOT": 1.309e-05, "MEAN_MOTION_DDOT": 0}, "tle": {"line1": "1 37312U 93036BKC 25349.31981845  .00001309  00000+0  37323-3 0  9992", "line2": "2 37312  74.0308 199.3640 0018390 302.4306  57.5073 14.46134941862012"}}, "geometry": {"type": "Point", "coordinates": [-171.91227310001034, -15.129558656174606]}}, {"type": "Feature", "properties": {"norad_id": 37316, "name": "COSMOS 2251 DEB", "group": "cosmos-2251-debris", "lat": -11.621381426356646, "lon": -168.14759796200048, "alt_km": 596.7625880249161, "timestamp": "2025-12-18T23:35:49.460889+00:00", "meta": {"OBJECT_NAME": "COSMOS 2251 DEB", "OBJECT_ID": "1993-036BKG", "EPOCH": "2025-12-18T11:29:58.442496", "MEAN_MOTION": 14.94726133, "ECCENTRICITY": 0.00293495, "INCLINATION": 74.0196, "RA_OF_ASC_NODE": 9.4903, "ARG_OF_PERICENTER": 75.1338, "MEAN_ANOMALY": 285.3093, "EPHEMERIS_TYPE": 0, "CLASSIFICATION_TYPE": "U", "NORAD_CAT_ID": 37316, "ELEMENT_SET_NO": 999, "REV_AT_EPOCH": 86229, "BSTAR": 0.0018370808, "MEAN_MOTION_DOT": 0.00020143, "MEAN_MOTION_DDOT": 0}, "tle": {"line1": "1 37316U 93036BKG 25352.47914864  .00020143  00000+0  18371-2 0  9992", "line2": "2 37316  74.0196   9.4903 0029349  75.1338 285.3093 14.94726133862295"}}, "geometry": {"type": "Point", "coordinates": [-168.14759796200048, -11.621381426356646]}}, {"type": "Feature", "properties": {"norad_id": 37320, "name": "COSMOS 2251 DEB", "group": "cosmos-2251-debris", "lat": -27.286315713411366, "lon": -162.59121766606236, "alt_km": 613.1177272276727, "timestamp": "2025-12-18T23:35:49.460900+00:00", "meta": {"OBJECT_NAME": "COSMOS 2251 DEB", "OBJECT_ID": "1993-036BKL", "EPOCH": "2025-12-18T07:29:21.246144", "MEAN_MOTION": 14.788451, "ECCENTRICITY": 0.00469492, "INCLINATION": 74.045, "RA_OF_ASC_NODE": 207.2135, "ARG_OF_PERICENTER": 293.0876, "MEAN_ANOMALY": 66.5354, "EPHEMERIS_TYPE": 0, "CLASSIFICATION_TYPE": "U", "NORAD_CAT_ID": 37320, "ELEMENT_SET_NO": 999, "REV_AT_EPOCH": 66229, "BSTAR": 0.00065191726, "MEAN_MOTION_DOT": 4.856e-05, "MEAN_MOTION_DDOT": 0}, "tle": {"line1": "1 37320U 93036BKL 25352.31205146  .00004856  00000+0  65192-3 0  9993", "line2": "2 37320  74.0450 207.2135 0046949 293.0876  66.5354 14.78845100662296"}}, "geometry": {"type": "Point", "coordinates": [-162.59121766606236, -27.286315713411366]}}, {"type": "Feature", "properties": {"norad_id": 37326, "name": "COSMOS 2251 DEB", "group": "cosmos-2251-debris", "lat": 27.597329006726607, "lon": 134.12814245224695, "alt_km": 667.7108433917601, "timestamp": "2025-12-18T23:35:49.460911+00:00", "meta": {"OBJECT_NAME": "COSMOS 2251 DEB", "OBJECT_ID": "1993-036BKS", "EPOCH": "2025-12-18T14:41:59.918784", "MEAN_MOTION": 14.6160351, "ECCENTRICITY": 0.00547059, "INCLINATION": 74.0257, "RA_OF_ASC_NODE": 323.4491, "ARG_OF_PERICENTER": 90.7075, "MEAN_ANOMALY": 270.0361, "EPHEMERIS_TYPE": 0, "CLASSIFICATION_TYPE": "U", "NORAD_CAT_ID": 37326, "ELEMENT_SET_NO": 999, "REV_AT_EPOCH": 85569, "BSTAR": 0.00040097011, "MEAN_MOTION_DOT": 2.005e-05, "MEAN_MOTION_DDOT": 0}, "tle": {"line1": "1 37326U 93036BKS 25352.61249906  .00002005  00000+0  40097-3 0  9995", "line2": "2 37326  74.0257 323.4491 0054705  90.7075 270.0361 14.61603510855692"}}, "geometry": {"type": "Point", "coordinates": [134.12814245224695, 27.597329006726607]}}, {"type": "Feature", "properties": {"norad_id": 37330, "name": "COSMOS 2251 DEB", "group": "cosmos-2251-debris", "lat": 70.64638009665798, "lon": 48.493105885002045, "alt_km": 652.1775908337131, "timestamp": "2025-12-18T23:35:49.460922+00:00", "meta": {"OBJECT_NAME": "COSMOS 2251 DEB", "OBJECT_ID": "1993-036BKW", "EPOCH": "2025-12-18T13:16:00.215328", "MEAN_MOTION": 14.59555807, "ECCENTRICITY": 0.00568388, "INCLINATION": 74.0188, "RA_OF_ASC_NODE": 283.9903, "ARG_OF_PERICENTER": 130.889, "MEAN_ANOMALY": 229.722, "EPHEMERIS_TYPE": 0, "CLASSIFICATION_TYPE": "U", "NORAD_CAT_ID": 37330, "ELEMENT_SET_NO": 999, "REV_AT_EPOCH": 86453, "BSTAR": 0.00022434726, "MEAN_MOTION_DOT": 1.06e-05, "MEAN_MOTION_DDOT": 0}, "tle": {"line1": "1 37330U 93036BKW 25352.55278027  .00001060  00000+0  22435-3 0  9995", "line2": "2 37330  74.0188 283.9903 0056838 130.8890 229.7220 14.59555807864538"}}, "geometry": {"type": "Point", "coordinates": [48.493105885002045, 70.64638009665798]}}, {"type": "Feature", "properties": {"norad_id": 37331, "name": "COSMOS 2251 DEB", "group": "cosmos-2251-debris", "lat": 31.39094987912911, "lon": 66.48592171578937, "alt_km": 740.7671967728675, "timestamp": "2025-12-18T23:35:49.460932+00:00", "meta": {"OBJECT_NAME": "COSMOS 2251 DEB", "OBJECT_ID": "1993-036BKX", "EPOCH": "2025-12-16T21:15:09.521568", "MEAN_MOTION": 14.35033598, "ECCENTRICITY": 0.00552693, "INCLINATION": 74.0751, "RA_OF_ASC_NODE": 60.2873, "ARG_OF_PERICENTER": 73.2754, "MEAN_ANOMALY": 287.4454, "EPHEMERIS_TYPE": 0, "CLASSIFICATION_TYPE": "U", "NORAD_CAT_ID": 37331, "ELEMENT_SET_NO": 999, "REV_AT_EPOCH": 84819, "BSTAR": 0.00035206854, "MEAN_MOTION_DOT": 9.96e-06, "MEAN_MOTION_DDOT": 0}, "tle": {"line1": "1 37331U 93036BKX 25350.88552687  .00000996  00000+0  35207-3 0  9995", "line2": "2 37331  74.0751  60.2873 0055269  73.2754 287.4454 14.35033598848199"}}, "geometry": {"type": "Point", "coordinates": [66.48592171578937, 31.39094987912911]}}, {"type": "Feature", "properties": {"norad_id": 37336, "name": "COSMOS 2251 DEB", "group": "cosmos-2251-debris", "lat": -35.96042363046957, "lon": -52.165941911069595, "alt_km": 782.4269199406799, "timestamp": "2025-12-18T23:35:49.460942+00:00", "meta": {"OBJECT_NAME": "COSMOS 2251 DEB", "OBJECT_ID": "1993-036BLC", "EPOCH": "2025-12-17T07:33:13.175712", "MEAN_MOTION": 14.32760586, "ECCENTRICITY": 0.00290162, "INCLINATION": 74.0414, "RA_OF_ASC_NODE": 322.8603, "ARG_OF_PERICENTER": 39.1846, "MEAN_ANOMALY": 321.1399, "EPHEMERIS_TYPE": 0, "CLASSIFICATION_TYPE": "U", "NORAD_CAT_ID": 37336, "ELEMENT_SET_NO": 999, "REV_AT_EPOCH": 65185, "BSTAR": 6.9199726e-05, "MEAN_MOTION_DOT": 1.63e-06, "MEAN_MOTION_DDOT": 0}, "tle": {"line1": "1 37336U 93036BLC 25351.31473583  .00000163  00000+0  69200-4 0  9993", "line2": "2 37336  74.0414 322.8603 0029016  39.1846 321.1399 14.32760586651852"}}, "geometry": {"type": "Point", "coordinates": [-52.165941911069595, -35.96042363046957]}}]}